NORAD_CAT_ID,OBJECT_NAME,OBJECT_TYPE,EPOCH,MEAN_MOTION,ECCENTRICITY,INCLINATION,RA_OF_ASC_NODE,ARG_OF_PERICENTER,MEAN_ANOMALY,BSTAR,MEAN_MOTION_DOT,MEAN_MOTION_DDOT,TLE_LINE0,TLE_LINE1,TLE_LINE2,SEMIMAJOR_AXIS,PERIOD,APOGEE,PERIGEE,DECAYED
53433.0,STARLINK-4549,PAYLOAD,2024-05-07 00:20:21,15.0884791,0.0001375,53.2193,239.3909,95.4914,264.6235,0.00015118,2.119e-05,0.0,0 STARLINK-4549,1 53433U 22097AX  24128.01413823  .00002119  00000-0  15118-3 0  9999,2 53433  53.2193 239.3909 0001375  95.4914 264.6235 15.08847910 96901,6917.856,95.437,540.672,538.77,0.0
53433.0,STARLINK-4549,PAYLOAD,2024-05-07 13:03:27,15.08826712,0.0001362,53.2167,237.0107,102.8152,257.2993,-0.00025788,-4.388e-05,0.0,0 STARLINK-4549,1 53433U 22097AX  24128.54406908 -.00004388  00000-0 -25788-3 0  9999,2 53433  53.2167 237.0107 0001362 102.8152 257.2993 15.08826712 96984,6917.921,95.438,540.728,538.844,0.0
53433.0,STARLINK-4549,PAYLOAD,2024-05-07 14:38:50,15.08836642,0.0001222,53.2161,236.713,118.9513,241.1601,-0.00010291,-1.925e-05,0.0,0 STARLINK-4549,1 53433U 22097AX  24128.61030397 -.00001925  00000-0 -10291-3 0  9999,2 53433  53.2161 236.7130 0001222 118.9513 241.1601 15.08836642 97458,6917.891,95.438,540.601,538.91,0.0
53433.0,STARLINK-4549,PAYLOAD,2024-05-07 16:14:13,15.088356,0.0001173,53.2161,236.4157,111.3133,248.7984,-0.00010215,-1.913e-05,0.0,0 STARLINK-4549,1 53433U 22097AX  24128.67654544 -.00001913  00000-0 -10215-3 0  9994,2 53433  53.2161 236.4157 0001173 111.3133 248.7984 15.08835600 97005,6917.894,95.438,540.57,538.947,0.0
53433.0,STARLINK-4549,PAYLOAD,2024-05-08 14:29:37,15.08843295,0.0001117,53.2164,232.25,89.9334,270.1787,0.00027614,4.11e-05,0.0,0 STARLINK-4549,1 53433U 22097AX  24129.60390811  .00004110  00000-0  27614-3 0  9993,2 53433  53.2164 232.2500 0001117  89.9334 270.1787 15.08843295 97600,6917.87,95.437,540.508,538.963,0.0
53433.0,STARLINK-4549,PAYLOAD,2024-05-09 00:01:56,15.08853293,0.0001055,53.216,230.4659,95.8863,264.2249,0.00046359,7.101e-05,0.0,0 STARLINK-4549,1 53433U 22097AX  24130.00134433  .00007101  00000-0  46359-3 0  9995,2 53433  53.2160 230.4659 0001055  95.8863 264.2249 15.08853293 97207,6917.84,95.437,540.435,538.975,0.0
53433.0,STARLINK-4549,PAYLOAD,2024-05-09 12:45:01,15.08844508,0.0001149,53.2152,228.088,104.0152,256.0967,0.00030155,4.515e-05,0.0,0 STARLINK-4549,1 53433U 22097AX  24130.53126887  .00004515  00000-0  30155-3 0  9990,2 53433  53.2152 228.0880 0001149 104.0152 256.0967 15.08844508 97288,6917.867,95.437,540.526,538.937,0.0
53433.0,STARLINK-4549,PAYLOAD,2024-05-09 23:52:42,15.08864723,8.93e-05,53.2145,226.0045,94.3767,265.7328,0.00068744,0.00010677,0.0,0 STARLINK-4549,1 53433U 22097AX  24130.99494086  .00010677  00000-0  68744-3 0  9990,2 53433  53.2145 226.0045 0000893  94.3767 265.7328 15.08864723 97356,6917.805,95.436,540.288,539.052,0.0
53433.0,STARLINK-4549,PAYLOAD,2024-05-10 12:35:48,15.0883843,0.00012,53.2157,223.6266,86.8161,273.2968,7.9798e-05,9.82e-06,0.0,0 STARLINK-4549,1 53433U 22097AX  24131.52486708  .00000982  00000-0  79798-4 0  9992,2 53433  53.2157 223.6266 0001200  86.8161 273.2968 15.08838430 97433,6917.885,95.438,540.58,538.92,0.0
53433.0,STARLINK-4549,PAYLOAD,2024-05-10 15:46:34,15.08842128,0.0001334,53.2165,223.0302,93.994,266.1204,0.0002512,3.712e-05,0.0,0 STARLINK-4549,1 53433U 22097AX  24131.65734714  .00003712  00000-0  25120-3 0  9992,2 53433  53.2165 223.0302 0001334  93.9940 266.1204 15.08842128 97915,6917.874,95.437,540.662,538.816,0.0
53433.0,STARLINK-4549,PAYLOAD,2024-05-11 12:26:33,15.08836209,0.0001329,53.2158,219.1654,107.6007,252.5131,0.00030596,4.584e-05,0.0,0 STARLINK-4549,1 53433U 22097AX  24132.51844503  .00004584  00000-0  30596-3 0  9997,2 53433  53.2158 219.1654 0001329 107.6007 252.5131 15.08836209 97588,6917.892,95.438,540.676,538.838,0.0
53433.0,STARLINK-4549,PAYLOAD,2024-05-11 15:37:20,15.08821931,0.0001292,53.2159,218.5698,105.1843,254.9292,0.0010919,0.00017124,0.0,0 STARLINK-4549,1 53433U 22097AX  24132.65092814  .00017124  00000-0  10919-2 0  9992,2 53433  53.2159 218.5698 0001292 105.1843 254.9292 15.08821931 98064,6917.936,95.439,540.694,538.907,0.0
53433.0,STARLINK-4549,PAYLOAD,2024-05-12 12:17:24,15.08776329,5.78e-05,53.2152,214.7084,68.0086,292.0968,0.0012637,0.00019846,0.0,0 STARLINK-4549,1 53433U 22097AX  24133.51209313  .00019846  00000-0  12637-2 0  9994,2 53433  53.2152 214.7084 0000578  68.0086 292.0968 15.08776329 97732,6918.075,95.442,540.34,539.54,0.0
53433.0,STARLINK-4549,PAYLOAD,2024-05-12 15:28:11,15.08806876,0.0001092,53.2166,214.1125,92.0255,268.0862,0.0026524,0.00042139,0.0,0 STARLINK-4549,1 53433U 22097AX  24133.64457525  .00042139  00000-0  26524-2 0  9999,2 53433  53.2166 214.1125 0001092  92.0255 268.0862 15.08806876 97753,6917.982,95.44,540.602,539.091,0.0
53433.0,STARLINK-4549,PAYLOAD,2024-05-12 21:49:44,15.0880991,0.0001116,53.2158,212.9207,81.1691,278.9428,0.002188,0.00034677,0.0,0 STARLINK-4549,1 53433U 22097AX  24133.90953984  .00034677  00000-0  21880-2 0  9996,2 53433  53.2158 212.9207 0001116  81.1691 278.9428 15.08809910 98257,6917.972,95.439,540.609,539.065,0.0
53433.0,STARLINK-4549,PAYLOAD,2024-05-13 05:46:40,15.08809765,0.000179,53.2168,211.435,90.9508,269.1689,0.002272,0.00036026,0.0,0 STARLINK-4549,1 53433U 22097AX  24134.24074871  .00036026  00000-0  22720-2 0  9997,2 53433  53.2168 211.4350 0001790  90.9508 269.1689 15.08809765 97847,6917.973,95.439,541.076,538.599,0.0
53433.0,STARLINK-4549,PAYLOAD,2024-05-13 12:08:12,15.0884286,0.0001468,53.2156,210.2467,79.666,280.4497,0.0015064,0.0002377,0.0,0 STARLINK-4549,1 53433U 22097AX  24134.50570450  .00023770  00000-0  15064-2 0  9995,2 53433  53.2156 210.2467 0001468  79.6660 280.4497 15.08842860 98347,6917.872,95.437,540.752,538.721,0.0
53433.0,STARLINK-4549,PAYLOAD,2024-05-14 11:58:57,15.0889093,0.0001355,53.2156,205.7867,77.9815,282.1329,0.0012587,0.00019829,0.0,0 STARLINK-4549,1 53433U 22097AX  24135.49928226  .00019829  00000-0  12587-2 0  9999,2 53433  53.2156 205.7867 0001355  77.9815 282.1329 15.08890930 98498,6917.725,95.434,540.527,538.652,0.0
53433.0,STARLINK-4549,PAYLOAD,2024-05-14 21:31:15,15.08894539,0.0001332,53.2157,204.0033,87.4561,272.6583,0.00090148,0.0001411,0.0,0 STARLINK-4549,1 53433U 22097AX  24135.89670922  .00014110  00000-0  90148-3 0  9998,2 53433  53.2157 204.0033 0001332  87.4561 272.6583 15.08894539 98557,6917.714,95.434,540.5,538.657,0.0
53433.0,STARLINK-4549,PAYLOAD,2024-05-15 11:49:44,15.0884952,0.000137,53.2158,201.3261,97.3679,262.7469,-0.00011717,-2.153e-05,0.0,0 STARLINK-4549,1 53433U 22097AX  24136.49287158 -.00002153  00000-0 -11717-3 0  9991,2 53433  53.2158 201.3261 0001370  97.3679 262.7469 15.08849520 98185,6917.851,95.437,540.664,538.769,0.0
53433.0,STARLINK-4549,PAYLOAD,2024-05-15 21:22:02,15.08862402,0.000135,53.2151,199.5408,93.4658,266.6489,0.0014534,0.00022933,0.0,0 STARLINK-4549,1 53433U 22097AX  24136.89031105  .00022933  00000-0  14534-2 0  9999,2 53433  53.2151 199.5408 0001350  93.4658 266.6489 15.08862402 98708,6917.812,95.436,540.611,538.743,0.0
53433.0,STARLINK-4549,PAYLOAD,2024-05-16 13:15:54,15.08868108,0.0001391,53.2153,196.5694,94.7375,265.3776,0.0018339,0.00029042,0.0,0 STARLINK-4549,1 53433U 22097AX  24137.55270928  .00029042  00000-0  18339-2 0  9996,2 53433  53.2153 196.5694 0001391  94.7375 265.3776 15.08868108 98343,6917.794,95.436,540.622,538.697,0.0
53433.0,STARLINK-4549,PAYLOAD,2024-05-16 21:12:49,15.08885229,0.00016,53.2156,195.0814,72.3952,287.7214,0.0017029,0.00026951,0.0,0 STARLINK-4549,1 53433U 22097AX  24137.88390086  .00026951  00000-0  17029-2 0  9991,2 53433  53.2156 195.0814 0001600  72.3952 287.7214 15.08885229 98854,6917.742,95.435,540.714,538.5,0.0
53433.0,STARLINK-4549,PAYLOAD,2024-05-17 13:06:40,15.08836709,0.000158,53.2164,192.1049,84.1211,275.9962,0.0013244,0.00020851,0.0,0 STARLINK-4549,1 53433U 22097AX  24138.54630750  .00020851  00000-0  13244-2 0  9998,2 53433  53.2164 192.1049 0001580  84.1211 275.9962 15.08836709 98495,6917.89,95.438,540.848,538.662,0.0
53433.0,STARLINK-4549,PAYLOAD,2024-05-17 21:03:36,15.08847866,0.0001669,53.2163,190.6185,85.0303,275.088,0.0013257,0.00020878,0.0,0 STARLINK-4549,1 53433U 22097AX  24138.87750768  .00020878  00000-0  13257-2 0  9999,2 53433  53.2163 190.6185 0001669  85.0303 275.0880 15.08847866 99002,6917.856,95.437,540.876,538.567,0.0
53433.0,STARLINK-4549,PAYLOAD,2024-05-18 09:46:42,15.08847703,0.0001774,53.2159,188.2408,88.8376,271.2819,0.0015883,0.00025086,0.0,0 STARLINK-4549,1 53433U 22097AX  24139.40743190  .00025086  00000-0  15883-2 0  9993,2 53433  53.2159 188.2408 0001774  88.8376 271.2819 15.08847703 98623,6917.857,95.437,540.949,538.495,0.0
53433.0,STARLINK-4549,PAYLOAD,2024-05-19 03:15:57,15.08841728,0.0001768,53.216,184.9685,81.9159,278.2034,0.0015817,0.00024976,0.0,0 STARLINK-4549,1 53433U 22097AX  24140.13607952  .00024976  00000-0  15817-2 0  9994,2 53433  53.2160 184.9685 0001768  81.9159 278.2034 15.08841728 98730,6917.875,95.437,540.963,538.517,0.0
53433.0,STARLINK-4549,PAYLOAD,2024-05-19 09:37:30,15.08807248,0.0001771,53.2177,183.7805,101.7422,258.3769,0.00049614,7.61e-05,0.0,0 STARLINK-4549,1 53433U 22097AX  24140.40104367  .00007610  00000-0  49614-3 0  9995,2 53433  53.2177 183.7805 0001771 101.7422 258.3769 15.08807248 99236,6917.981,95.44,541.071,538.62,0.0
53433.0,STARLINK-4549,PAYLOAD,2024-05-20 03:06:45,15.08835333,0.0001407,53.2159,180.5068,93.9939,266.1214,0.0008062,0.00012564,0.0,0 STARLINK-4549,1 53433U 22097AX  24141.12968894  .00012564  00000-0  80620-3 0  9994,2 53433  53.2159 180.5068 0001407  93.9939 266.1214 15.08835333 98881,6917.895,95.438,540.733,538.786,0.0
53433.0,STARLINK-4549,PAYLOAD,2024-05-20 12:39:03,15.08863417,0.0001649,53.2161,178.7264,99.8007,260.3172,0.0014287,0.00022538,0.0,0 STARLINK-4549,1 53433U 22097AX  24141.52712468  .00022538  00000-0  14287-2 0  9999,2 53433  53.2161 178.7264 0001649  99.8007 260.3172 15.08863417 98940,6917.809,95.436,540.815,538.533,0.0
